{"type": "FeatureCollection", "features": [ {"type": "Feature", "properties": {"norad_id": 41836, "name": "HIMAWARI-9", "group": "weather", "lat": -0.006235864430738488, "lon": -30.974797126284255, "alt_km": 35777.696520773425, "timestamp": "2025-12-04T07:39:35.817084+00:00", "meta": {"OBJECT_NAME": "HIMAWARI-9", "OBJECT_ID": "2016-064A", "EPOCH": "2025-12-03T18:51:33.971904", "MEAN_MOTION": 1.00270864, "ECCENTRICITY": 0.00023308, "INCLINATION": 0.0194, "RA_OF_ASC_NODE": 347.0429, "ARG_OF_PERICENTER": 314.766, "MEAN_ANOMALY": 194.6947, "EPHEMERIS_TYPE": 0, "CLASSIFICATION_TYPE": "U", "NORAD_CAT_ID": 41836, "ELEMENT_SET_NO": 999, "REV_AT_EPOCH": 3325, "BSTAR": 0, "MEAN_MOTION_DOT": 0, "MEAN_MOTION_DDOT": 0}, "tle": {"line1": "1 41836U 16064A   25337.78580986  .00000000  00000+0  00000+0 0  9998", "line2": "2 41836   0.0194 347.0429 0002330 314.7660 194.6947  1.00270864 33253"}}, "geometry": {"type": "Point", "coordinates": [-30.974797126284255, -0.006235864430738488]}}, {"type": "Feature", "properties": {"norad_id": 41866, "name": "GOES 16", "group": "weather", "lat": 0.012513454516229087, "lon": 83.59414975987147, "alt_km": 35800.83646047788, "timestamp": "2025-12-04T07:39:35.817095+00:00", "meta": {"OBJECT_NAME": "GOES 16", "OBJECT_ID": "2016-071A", "EPOCH": "2025-12-03T16:40:44.444640", "MEAN_MOTION": 1.00270587, "ECCENTRICITY": 0.00034246, "INCLINATION": 0.06, "RA_OF_ASC_NODE": 106.1722, "ARG_OF_PERICENTER": 150.8808, "MEAN_ANOMALY": 321.241, "EPHEMERIS_TYPE": 0, "CLASSIFICATION_TYPE": "U", "NORAD_CAT_ID": 41866, "ELEMENT_SET_NO": 999, "REV_AT_EPOCH": 3314, "BSTAR": 0, "MEAN_MOTION_DOT": -7.3e-07, "MEAN_MOTION_DDOT": 0}, "tle": {"line1": "1 41866U 16071A   25337.69495885 -.00000073  00000+0  00000+0 0  9993", "line2": "2 41866   0.0600 106.1722 0003424 150.8808 321.2410  1.00270587 33149"}}, "geometry": {"type": "Point", "coordinates": [83.59414975987147, 0.012513454516229087]}}, {"type": "Feature", "properties": {"norad_id": 41882, "name": "FENGYUN 4A", "group": "weather", "lat": -1.3971785191155157, "lon": -47.93242054341695, "alt_km": 35783.599040987756, "timestamp": "2025-12-04T07:39:35.817105+00:00", "meta": {"OBJECT_NAME": "FENGYUN 4A", "OBJECT_ID": "2016-077A", "EPOCH": "2025-12-03T17:33:02.668032", "MEAN_MOTION": 1.00278005, "ECCENTRICITY": 0.00050458, "INCLINATION": 1.8246, "RA_OF_ASC_NODE": 82.4798, "ARG_OF_PERICENTER": 142.0307, "MEAN_ANOMALY": 235.3013, "EPHEMERIS_TYPE": 0, "CLASSIFICATION_TYPE": "U", "NORAD_CAT_ID": 41882, "ELEMENT_SET_NO": 999, "REV_AT_EPOCH": 3297, "BSTAR": 0, "MEAN_MOTION_DOT": -3.4e-06, "MEAN_MOTION_DDOT": 0}, "tle": {"line1": "1 41882U 16077A   25337.73128088 -.00000340  00000+0  00000+0 0  9997", "line2": "2 41882   1.8246  82.4798 0005045 142.0307 235.3013  1.00278005 32976"}}, "geometry": {"type": "Point", "coordinates": [-47.93242054341695, -1.3971785191155157]}}, {"type": "Feature", "properties": {"norad_id": 41884, "name": "CYGFM05", "group": "weather", "lat": 2.691478595989551, "lon": -81.74283061484196, "alt_km": 421.71993524251866, "timestamp": "2025-12-04T07:39:35.817116+00:00", "meta": {"OBJECT_NAME": "CYGFM05", "OBJECT_ID": "2016-078A", "EPOCH": "2025-12-03T18:31:05.693088", "MEAN_MOTION": 15.47122129, "ECCENTRICITY": 0.00094431, "INCLINATION": 34.9581, "RA_OF_ASC_NODE": 105.6896, "ARG_OF_PERICENTER": 97.015, "MEAN_ANOMALY": 263.1646, "EPHEMERIS_TYPE": 0, "CLASSIFICATION_TYPE": "U", "NORAD_CAT_ID": 41884, "ELEMENT_SET_NO": 999, "REV_AT_EPOCH": 49837, "BSTAR": 0.00052890083, "MEAN_MOTION_DOT": 0.00027731, "MEAN_MOTION_DDOT": 0}, "tle": {"line1": "1 41884U 16078A   25337.77159367  .00027731  00000+0  52890-3 0  9998", "line2": "2 41884  34.9581 105.6896 0009443  97.0150 263.1646 15.47122129498377"}}, "geometry": {"type": "Point", "coordinates": [-81.74283061484196, 2.691478595989551]}}, {"type": "Feature", "properties": {"norad_id": 41885, "name": "CYGFM04", "group": "weather", "lat": -15.373614266869193, "lon": 53.93366612006696, "alt_km": 423.2221670582003, "timestamp": "2025-12-04T07:39:35.817125+00:00", "meta": {"OBJECT_NAME": "CYGFM04", "OBJECT_ID": "2016-078B", "EPOCH": "2025-12-03T16:19:08.756544", "MEAN_MOTION": 15.4978051, "ECCENTRICITY": 0.00084979, "INCLINATION": 34.9344, "RA_OF_ASC_NODE": 81.322, "ARG_OF_PERICENTER": 126.9892, "MEAN_ANOMALY": 233.1609, "EPHEMERIS_TYPE": 0, "CLASSIFICATION_TYPE": "U", "NORAD_CAT_ID": 41885, "ELEMENT_SET_NO": 999, "REV_AT_EPOCH": 49853, "BSTAR": 0.00098169301, "MEAN_MOTION_DOT": 0.00056749, "MEAN_MOTION_DDOT": 0}, "tle": {"line1": "1 41885U 16078B   25337.67996246  .00056749  00000+0  98169-3 0  9993", "line2": "2 41885  34.9344  81.3220 0008497 126.9892 233.1609 15.49780510498539"}}, "geometry": {"type": "Point", "coordinates": [53.93366612006696, -15.373614266869193]}}, {"type": "Feature", "properties": {"norad_id": 41886, "name": "CYGFM02", "group": "weather", "lat": -28.318156530259056, "lon": 25.05625866140789, "alt_km": 421.9097115385339, "timestamp": "2025-12-04T07:39:35.817135+00:00", "meta": {"OBJECT_NAME": "CYGFM02", "OBJECT_ID": "2016-078C", "EPOCH": "2025-12-03T16:27:15.357888", "MEAN_MOTION": 15.51117901, "ECCENTRICITY": 0.00102215, "INCLINATION": 34.9434, "RA_OF_ASC_NODE": 79.7274, "ARG_OF_PERICENTER": 125.8816, "MEAN_ANOMALY": 234.2856, "EPHEMERIS_TYPE": 0, "CLASSIFICATION_TYPE": "U", "NORAD_CAT_ID": 41886, "ELEMENT_SET_NO": 999, "REV_AT_EPOCH": 49866, "BSTAR": 0.00053654674, "MEAN_MOTION_DOT": 0.0003243, "MEAN_MOTION_DDOT": 0}, "tle": {"line1": "1 41886U 16078C   25337.68559442  .00032430  00000+0  53655-3 0  9990", "line2": "2 41886  34.9434  79.7274 0010221 125.8816 234.2856 15.51117901498663"}}, "geometry": {"type": "Point", "coordinates": [25.05625866140789, -28.318156530259056]}}, {"type": "Feature", "properties": {"norad_id": 41887, "name": "CYGFM01", "group": "weather", "lat": -12.40569603413515, "lon": -57.111809866600304, "alt_km": 425.6771112755923, "timestamp": "2025-12-04T07:39:35.817144+00:00", "meta": {"OBJECT_NAME": "CYGFM01", "OBJECT_ID": "2016-078D", "EPOCH": "2025-12-03T18:24:28.844928", "MEAN_MOTION": 15.4768667, "ECCENTRICITY": 0.00090329, "INCLINATION": 34.9412, "RA_OF_ASC_NODE": 108.1317, "ARG_OF_PERICENTER": 88.3823, "MEAN_ANOMALY": 271.7933, "EPHEMERIS_TYPE": 0, "CLASSIFICATION_TYPE": "U", "NORAD_CAT_ID": 41887, "ELEMENT_SET_NO": 999, "REV_AT_EPOCH": 49831, "BSTAR": 0.00054644493, "MEAN_MOTION_DOT": 0.00029225, "MEAN_MOTION_DDOT": 0}, "tle": {"line1": "1 41887U 16078D   25337.76700052  .00029225  00000+0  54644-3 0  9992", "line2": "2 41887  34.9412 108.1317 0009032  88.3823 271.7933 15.47686670498317"}}, "geometry": {"type": "Point", "coordinates": [-57.111809866600304, -12.40569603413515]}}, {"type": "Feature", "properties": {"norad_id": 41888, "name": "CYGFM08", "group": "weather", "lat": -18.754333758392935, "lon": -63.293128443982276, "alt_km": 421.424734631958, "timestamp": "2025-12-04T07:39:35.817154+00:00", "meta": {"OBJECT_NAME": "CYGFM08", "OBJECT_ID": "2016-078E", "EPOCH": "2025-12-03T16:49:09.162336", "MEAN_MOTION": 15.48859684, "ECCENTRICITY": 0.00107145, "INCLINATION": 34.9451, "RA_OF_ASC_NODE": 91.66, "ARG_OF_PERICENTER": 114.1528, "MEAN_ANOMALY": 246.0315, "EPHEMERIS_TYPE": 0, "CLASSIFICATION_TYPE": "U", "NORAD_CAT_ID": 41888, "ELEMENT_SET_NO": 999, "REV_AT_EPOCH": 49853, "BSTAR": 0.00053575123, "MEAN_MOTION_DOT": 0.00029879, "MEAN_MOTION_DDOT": 0}, "tle": {"line1": "1 41888U 16078E   25337.70080049  .00029879  00000+0  53575-3 0  9991", "line2": "2 41888  34.9451  91.6600 0010714 114.1528 246.0315 15.48859684498532"}}, "geometry": {"type": "Point", "coordinates": [-63.293128443982276, -18.754333758392935]}}, {"type": "Feature", "properties": {"norad_id": 41890, "name": "CYGFM07", "group": "weather", "lat": -2.4652999498129624, "lon": -99.82425307241958, "alt_km": 413.2528054241893, "timestamp": "2025-12-04T07:39:35.817164+00:00", "meta": {"OBJECT_NAME": "CYGFM07", "OBJECT_ID": "2016-078G", "EPOCH": "2025-12-03T16:57:09.459072", "MEAN_MOTION": 15.49431579, "ECCENTRICITY": 0.00089923, "INCLINATION": 34.9472, "RA_OF_ASC_NODE": 80.6555, "ARG_OF_PERICENTER": 132.3245, "MEAN_ANOMALY": 227.824, "EPHEMERIS_TYPE": 0, "CLASSIFICATION_TYPE": "U", "NORAD_CAT_ID": 41890, "ELEMENT_SET_NO": 999, "REV_AT_EPOCH": 49855, "BSTAR": 0.00053085543, "MEAN_MOTION_DOT": 0.00030191, "MEAN_MOTION_DDOT": 0}, "tle": {"line1": "1 41890U 16078G   25337.70635948  .00030191  00000+0  53086-3 0  9994", "line2": "2 41890  34.9472  80.6555 0008992 132.3245 227.8240 15.49431579498554"}}, "geometry": {"type": "Point", "coordinates": [-99.82425307241958, -2.4652999498129624]}}, {"type": "Feature", "properties": {"norad_id": 41891, "name": "CYGFM03", "group": "weather", "lat": 12.225962993362096, "lon": 96.63266833594948, "alt_km": 417.02040349172694, "timestamp": "2025-12-04T07:39:35.817177+00:00", "meta": {"OBJECT_NAME": "CYGFM03", "OBJECT_ID": "2016-078H", "EPOCH": "2025-12-03T17:38:56.094144", "MEAN_MOTION": 15.49338017, "ECCENTRICITY": 0.00083441, "INCLINATION": 34.9426, "RA_OF_ASC_NODE": 82.3772, "ARG_OF_PERICENTER": 119.6239, "MEAN_ANOMALY": 240.5315, "EPHEMERIS_TYPE": 0, "CLASSIFICATION_TYPE": "U", "NORAD_CAT_ID": 41891, "ELEMENT_SET_NO": 999, "REV_AT_EPOCH": 49853, "BSTAR": 0.00054311714, "MEAN_MOTION_DOT": 0.00030783, "MEAN_MOTION_DDOT": 0}, "tle": {"line1": "1 41891U 16078H   25337.73537146  .00030783  00000+0  54312-3 0  9999", "line2": "2 41891  34.9426  82.3772 0008344 119.6239 240.5315 15.49338017498532"}}, "geometry": {"type": "Point", "coordinates": [96.63266833594948, 12.225962993362096]}}]}